{"fetched_at":"2026-03-29T02:12:04Z","count":15717,"tles":[{"name":"STARLINK-36468","line1":"1 67415U 26005M   26087.46256038  .00038622  00000+0  14042-2 0  9996","line2":"2 67415  43.0019 132.2997 0001740 271.9798  88.0854 15.27614227 11563","category":"Starlink"}]}